From: horizons@ssd.jpl.nasa.gov (Horizons Ephemeris System)
Subject: [Horizons] SMALL BODY #C(V30@399)_T(NEOWISE (C/2016 C2)) (1/1)
Date: February 12, 2021 at 8:48:55 AM PST

Automated mail xmit by MAIL_REQUEST, PID= 32127 Fri Feb 12 08:48:55 2021
++++++++++++++++++++++++++++++++ (part 1 of 1)  +++++++++++++++++++++++++++++++


*******************************************************************************
Ephemeris / MAIL_REQUEST Fri Feb 12 08:48:55 2021 Pasadena, USA  / Horizons
*******************************************************************************
Target body name: NEOWISE (C/2016 C2)             {source: JPL#14}
Center body name: Earth (399)                     {source: DE431}
Center-site name: Heaven on Earth Observatory, Mayhill
*******************************************************************************
Start time      : A.D. 2015-Nov-07 00:00:00.0000 TDB
Stop  time      : A.D. 2016-Nov-07 00:00:00.0000 TDB
Step-size       : 10080 minutes
*******************************************************************************
Center geodetic : 254.471000,32.9035384,2.2360688 {E-lon(deg),Lat(deg),Alt(km)}
Center cylindric: 254.471000,5362.17112,3446.1964 {E-lon(deg),Dxy(km),Dz(km)}
Center pole/equ : High-precision EOP model        {East-longitude positive}
Center radii    : 6378.1 x 6378.1 x 6356.8 km     {Equator, meridian, pole}    
Small perturbers: Yes                             {source: SB431-N16}
Output units    : AU-D
Output type     : GEOMETRIC cartesian states
Output format   : 6 (LT, range, and range-rate)
EOP file        : eop.210211.p210505
EOP coverage    : DATA-BASED 1962-JAN-20 TO 2021-FEB-11. PREDICTS-> 2021-MAY-04
Reference frame : Ecliptic of J2000.0
*******************************************************************************
Initial IAU76/J2000 heliocentric ecliptic osculating elements (au, days, deg.):
 EPOCH=  2457458.5 ! 2016-Mar-11.0000000 (TDB)    RMSW= n.a.                  
  EC= .9756284363060184   QR= 1.559751383526498   TP= 2457498.0968973343      
  OM= 24.40456076041463   W= 214.4033673970171    IN= 38.15651467144115       
 Equivalent ICRF heliocentric equatorial cartesian coordinates (au, au/d):
  X=-1.421884492624819E+00  Y=-7.061611175514561E-01  Z=-4.469573888615568E-01
 VX= 1.177148237222918E-02 VY=-4.722459397221829E-03 VZ=-1.390469704518169E-02
Comet physical (GM= km^3/s^2; RAD= km):                                        
  GM= n.a.                RAD= n.a.                                           
  M1=  13.8     M2=  17.5     k1=  21.    k2=  5.      PHCOF=  .030           
*******************************************************************************
           JDTDB,            Calendar Date (TDB),                     LT,                     RG,                     RR,
**************************************************************************************************************************
$$SOE
2457333.500000000, A.D. 2015-Nov-07 00:00:00.0000,  1.856750585495044E-02,  3.214863980932201E+00, -1.678706513850307E-02,
2457340.500000000, A.D. 2015-Nov-14 00:00:00.0000,  1.787148026386447E-02,  3.094350885631750E+00, -1.723380300799732E-02,
2457347.500000000, A.D. 2015-Nov-21 00:00:00.0000,  1.715903348494748E-02,  2.970994549796221E+00, -1.760650571914298E-02,
2457354.500000000, A.D. 2015-Nov-28 00:00:00.0000,  1.643324537536011E-02,  2.845328234162387E+00, -1.790885209933999E-02,
2457361.500000000, A.D. 2015-Dec-05 00:00:00.0000,  1.569662981343591E-02,  2.717787203270891E+00, -1.815595289020018E-02,
2457368.500000000, A.D. 2015-Dec-12 00:00:00.0000,  1.495167380722601E-02,  2.588802069217209E+00, -1.833466852252796E-02,
2457375.500000000, A.D. 2015-Dec-19 00:00:00.0000,  1.420156871868091E-02,  2.458925399193987E+00, -1.842688338827315E-02,
2457382.500000000, A.D. 2015-Dec-26 00:00:00.0000,  1.344991916946448E-02,  2.328781314095151E+00, -1.843495161172892E-02,
2457389.500000000, A.D. 2016-Jan-02 00:00:00.0000,  1.269981654655910E-02,  2.198905070984214E+00, -1.837286059413556E-02,
2457396.500000000, A.D. 2016-Jan-09 00:00:00.0000,  1.195434386981424E-02,  2.069830478200544E+00, -1.822676076135498E-02,
2457403.500000000, A.D. 2016-Jan-16 00:00:00.0000,  1.121739417602890E-02,  1.942231594170688E+00, -1.797378947469188E-02,
2457410.500000000, A.D. 2016-Jan-23 00:00:00.0000,  1.049349680806986E-02,  1.816892650301570E+00, -1.761085954988954E-02,
2457417.500000000, A.D. 2016-Jan-30 00:00:00.0000,  9.786890705404666E-03,  1.694547596210228E+00, -1.714594731458202E-02,
2457424.500000000, A.D. 2016-Feb-06 00:00:00.0000,  9.102044921350687E-03,  1.575970224491699E+00, -1.655894067198670E-02,
2457431.500000000, A.D. 2016-Feb-13 00:00:00.0000,  8.444570420260453E-03,  1.462132043507752E+00, -1.581620217469360E-02,
2457438.500000000, A.D. 2016-Feb-20 00:00:00.0000,  7.821203729493485E-03,  1.354199446813548E+00, -1.490242744677009E-02,
2457445.500000000, A.D. 2016-Feb-27 00:00:00.0000,  7.238832541335252E-03,  1.253365001359830E+00, -1.381534097617943E-02,
2457452.500000000, A.D. 2016-Mar-05 00:00:00.0000,  6.704905408218201E-03,  1.160918384021468E+00, -1.252905440725303E-02,
2457459.500000000, A.D. 2016-Mar-12 00:00:00.0000,  6.228100815359060E-03,  1.078362227933481E+00, -1.101137531037392E-02,
2457466.500000000, A.D. 2016-Mar-19 00:00:00.0000,  5.817882996864056E-03,  1.007335214433736E+00, -9.264132280172912E-03,
2457473.500000000, A.D. 2016-Mar-26 00:00:00.0000,  5.482605306542345E-03,  9.492836818991153E-01, -7.330876494324234E-03,
2457480.500000000, A.D. 2016-Apr-02 00:00:00.0000,  5.228624208318771E-03,  9.053082179409946E-01, -5.266786112726097E-03,
2457487.500000000, A.D. 2016-Apr-09 00:00:00.0000,  5.059566765870762E-03,  8.760368291674876E-01, -3.152221894688450E-03,
2457494.500000000, A.D. 2016-Apr-16 00:00:00.0000,  4.975077198527253E-03,  8.614079140649900E-01, -1.106892286327195E-03,
2457501.500000000, A.D. 2016-Apr-23 00:00:00.0000,  4.969471675887601E-03,  8.604373479066004E-01,  7.386561290627495E-04,
2457508.500000000, A.D. 2016-Apr-30 00:00:00.0000,  5.032767905671416E-03,  8.713967503621832E-01,  2.304218394991366E-03,
2457515.500000000, A.D. 2016-May-07 00:00:00.0000,  5.152863538147682E-03,  8.921906645330668E-01,  3.562393625052453E-03,
2457522.500000000, A.D. 2016-May-14 00:00:00.0000,  5.317378583309195E-03,  9.206755615969431E-01,  4.519187647657083E-03,
2457529.500000000, A.D. 2016-May-21 00:00:00.0000,  5.514573432057256E-03,  9.548187912486789E-01,  5.201368784138067E-03,
2457536.500000000, A.D. 2016-May-28 00:00:00.0000,  5.734435152930486E-03,  9.928866681484001E-01,  5.663873130088096E-03,
2457543.500000000, A.D. 2016-Jun-04 00:00:00.0000,  5.969450329000151E-03,  1.033578284481855E+00,  5.972037971531751E-03,
2457550.500000000, A.D. 2016-Jun-11 00:00:00.0000,  6.214691966515795E-03,  1.076040557725930E+00,  6.184114017945267E-03,
2457557.500000000, A.D. 2016-Jun-18 00:00:00.0000,  6.467262213006429E-03,  1.119771740278993E+00,  6.344310314582509E-03,
2457564.500000000, A.D. 2016-Jun-25 00:00:00.0000,  6.726043411132384E-03,  1.164578315771511E+00,  6.496984641132184E-03,
2457571.500000000, A.D. 2016-Jul-02 00:00:00.0000,  6.991697176466066E-03,  1.210574839388741E+00,  6.685387432396091E-03,
2457578.500000000, A.D. 2016-Jul-09 00:00:00.0000,  7.266458100401511E-03,  1.258148218636778E+00,  6.941297204893212E-03,
2457585.500000000, A.D. 2016-Jul-16 00:00:00.0000,  7.553466149526839E-03,  1.307842121877133E+00,  7.280449292466767E-03,
2457592.500000000, A.D. 2016-Jul-23 00:00:00.0000,  7.856440940024941E-03,  1.360300580687481E+00,  7.717486810701730E-03,
2457599.500000000, A.D. 2016-Jul-30 00:00:00.0000,  8.179698310578555E-03,  1.416270859371228E+00,  8.267390417670066E-03,
2457606.500000000, A.D. 2016-Aug-06 00:00:00.0000,  8.527933841411593E-03,  1.476565972441434E+00,  8.931063129271388E-03,
2457613.500000000, A.D. 2016-Aug-13 00:00:00.0000,  8.905469611551376E-03,  1.541934264683673E+00,  9.693381075393227E-03,
2457620.500000000, A.D. 2016-Aug-20 00:00:00.0000,  9.316020224238337E-03,  1.613018899711541E+00,  1.054176923873044E-02,
2457627.500000000, A.D. 2016-Aug-27 00:00:00.0000,  9.762895193184120E-03,  1.690392902060972E+00,  1.146883522424171E-02,
2457634.500000000, A.D. 2016-Sep-03 00:00:00.0000,  1.024887136388679E-02,  1.774537067625719E+00,  1.245209721046418E-02,
2457641.500000000, A.D. 2016-Sep-10 00:00:00.0000,  1.077547597363878E-02,  1.865715829345789E+00,  1.345808374949171E-02,
2457648.500000000, A.D. 2016-Sep-17 00:00:00.0000,  1.134307036629089E-02,  1.963991751969497E+00,  1.446452584776819E-02,
2457655.500000000, A.D. 2016-Sep-24 00:00:00.0000,  1.195139351173761E-02,  2.069319639535109E+00,  1.546197652501944E-02,
2457662.500000000, A.D. 2016-Oct-01 00:00:00.0000,  1.259959069058523E-02,  2.181551501967158E+00,  1.642549347191607E-02,
2457669.500000000, A.D. 2016-Oct-08 00:00:00.0000,  1.328553515445611E-02,  2.300319104199010E+00,  1.732391065459570E-02,
2457676.500000000, A.D. 2016-Oct-15 00:00:00.0000,  1.400616248049832E-02,  2.425091857861609E+00,  1.814281977758408E-02,
2457683.500000000, A.D. 2016-Oct-22 00:00:00.0000,  1.475819093688614E-02,  2.555301548703453E+00,  1.888395810041008E-02,
2457690.500000000, A.D. 2016-Oct-29 00:00:00.0000,  1.553815810208324E-02,  2.690348677019474E+00,  1.953018819754897E-02,
2457697.500000000, A.D. 2016-Nov-05 00:00:00.0000,  1.634163705548114E-02,  2.829466745267037E+00,  2.005875972004007E-02,
$$EOE
**************************************************************************************************************************
Coordinate system description:

 Ecliptic at the standard reference epoch

   Reference epoch: J2000.0
   X-Y plane: adopted Earth orbital plane at the reference epoch
              Note: obliquity of 84381.448 arcseconds (IAU76) wrt ICRF equator
   X-axis   : ICRF
   Z-axis   : perpendicular to the X-Y plane in the directional (+ or -) sense
              of Earth's north pole at the reference epoch.

 Symbol meaning [1 au= 149597870.700 km, 1 day= 86400.0 s]:

   JDTDB    Julian Day Number, Barycentric Dynamical Time
     LT     One-way down-leg Newtonian light-time (day)
     RG     Range; distance from coordinate center (au)
     RR     Range-rate; radial velocity wrt coord. center (au/day)

Geometric states/elements have no aberrations applied.


Computations by ...
    Solar System Dynamics Group, Horizons On-Line Ephemeris System
    4800 Oak Grove Drive, Jet Propulsion Laboratory
    Pasadena, CA  91109   USA
    Information  : https://ssd.jpl.nasa.gov/
    Documentation: https://ssd.jpl.nasa.gov/?horizons_doc
    Connect      : https://ssd.jpl.nasa.gov/?horizons (browser)
                   telnet ssd.jpl.nasa.gov 6775       (command-line)
                   e-mail command interface available
                   Script and CGI interfaces available
    Author       : Jon.D.Giorgini@jpl.nasa.gov
*******************************************************************************
